{
    "links": {
        "self": "http://www.neowsapp.com/rest/v1/neo/3406332?api_key=iIulBulltgU6a56xZRHN4H3l9WmuAYTsLGpBGhQ2"
    },
    "id": "3406332",
    "neo_reference_id": "3406332",
    "name": "(2008 ED85)",
    "designation": "2008 ED85",
    "nasa_jpl_url": "http://ssd.jpl.nasa.gov/sbdb.cgi?sstr=3406332",
    "absolute_magnitude_h": 29.9,
    "estimated_diameter": {
        "kilometers": {
            "estimated_diameter_min": 0.0027832677,
            "estimated_diameter_max": 0.0062235757
        },
        "meters": {
            "estimated_diameter_min": 2.7832676807,
            "estimated_diameter_max": 6.2235757337
        },
        "miles": {
            "estimated_diameter_min": 0.0017294418,
            "estimated_diameter_max": 0.0038671495
        },
        "feet": {
            "estimated_diameter_min": 9.1314559376,
            "estimated_diameter_max": 20.41855621
        }
    },
    "is_potentially_hazardous_asteroid": false,
    "close_approach_data": [
        {
            "close_approach_date": "2008-03-14",
            "close_approach_date_full": "2008-Mar-14 10:38",
            "epoch_date_close_approach": 1205491080000,
            "relative_velocity": {
                "kilometers_per_second": "7.2231995207",
                "kilometers_per_hour": "26003.5182744298",
                "miles_per_hour": "16157.5750077978"
            },
            "miss_distance": {
                "astronomical": "0.0055793406",
                "lunar": "2.1703634934",
                "kilometers": "834657.469764522",
                "miles": "518632.1024215236"
            },
            "orbiting_body": "Moon"
        },
        {
            "close_approach_date": "2008-03-14",
            "close_approach_date_full": "2008-Mar-14 17:26",
            "epoch_date_close_approach": 1205515560000,
            "relative_velocity": {
                "kilometers_per_second": "6.5158476175",
                "kilometers_per_hour": "23457.0514228914",
                "miles_per_hour": "14575.2995355183"
            },
            "miss_distance": {
                "astronomical": "0.0044509189",
                "lunar": "1.7314074521",
                "kilometers": "665847.986982743",
                "miles": "413738.7537901334"
            },
            "orbiting_body": "Earth"
        }
    ],
    "orbital_data": {
        "orbit_id": "7",
        "orbit_determination_date": "2017-04-06 09:31:02",
        "first_observation_date": "2008-03-13",
        "last_observation_date": "2008-03-13",
        "data_arc_in_days": null,
        "observations_used": 10,
        "orbit_uncertainty": "9",
        "minimum_orbit_intersection": ".00414615",
        "jupiter_tisserand_invariant": "4.468",
        "epoch_osculation": "2454538.5",
        "eccentricity": ".3488033532443276",
        "semi_major_axis": "1.50170829279835",
        "inclination": "4.82929652822191",
        "ascending_node_longitude": "352.6018690566268",
        "orbital_period": "672.1663939949693",
        "perihelion_distance": ".9779074046754708",
        "perihelion_argument": "204.4853426153174",
        "aphelion_distance": "2.025509180921228",
        "perihelion_time": "2454559.583403903746",
        "mean_anomaly": "348.7081153221038",
        "mean_motion": ".5355816702771581",
        "equinox": "J2000",
        "orbit_class": {
            "orbit_class_type": "APO",
            "orbit_class_description": "Near-Earth asteroid orbits which cross the Earth’s orbit similar to that of 1862 Apollo",
            "orbit_class_range": "a (semi-major axis) > 1.0 AU; q (perihelion) < 1.017 AU"
        }
    },
    "is_sentry_object": false
}